{
    "links": {
        "self": "http://www.neowsapp.com/rest/v1/neo/3788087?api_key=iIulBulltgU6a56xZRHN4H3l9WmuAYTsLGpBGhQ2"
    },
    "id": "3788087",
    "neo_reference_id": "3788087",
    "name": "(2017 UU7)",
    "designation": "2017 UU7",
    "nasa_jpl_url": "http://ssd.jpl.nasa.gov/sbdb.cgi?sstr=3788087",
    "absolute_magnitude_h": 24.0,
    "estimated_diameter": {
        "kilometers": {
            "estimated_diameter_min": 0.0421264611,
            "estimated_diameter_max": 0.0941976306
        },
        "meters": {
            "estimated_diameter_min": 42.1264610556,
            "estimated_diameter_max": 94.1976305719
        },
        "miles": {
            "estimated_diameter_min": 0.0261761612,
            "estimated_diameter_max": 0.0585316759
        },
        "feet": {
            "estimated_diameter_min": 138.2101784897,
            "estimated_diameter_max": 309.0473542854
        }
    },
    "is_potentially_hazardous_asteroid": false,
    "close_approach_data": [
        {
            "close_approach_date": "2017-10-06",
            "close_approach_date_full": "2017-Oct-06 07:09",
            "epoch_date_close_approach": 1507273740000,
            "relative_velocity": {
                "kilometers_per_second": "7.9638932474",
                "kilometers_per_hour": "28670.0156904739",
                "miles_per_hour": "17814.4328050058"
            },
            "miss_distance": {
                "astronomical": "0.0610570401",
                "lunar": "23.7511885989",
                "kilometers": "9134003.147464587",
                "miles": "5675606.3744698206"
            },
            "orbiting_body": "Earth"
        },
        {
            "close_approach_date": "2121-11-08",
            "close_approach_date_full": "2121-Nov-08 10:42",
            "epoch_date_close_approach": 4792041720000,
            "relative_velocity": {
                "kilometers_per_second": "15.7432368797",
                "kilometers_per_hour": "56675.6527668667",
                "miles_per_hour": "35216.0465761678"
            },
            "miss_distance": {
                "astronomical": "0.3126578005",
                "lunar": "121.6238843945",
                "kilometers": "46772940.993684935",
                "miles": "29063357.847664703"
            },
            "orbiting_body": "Earth"
        }
    ],
    "orbital_data": {
        "orbit_id": "4",
        "orbit_determination_date": "2017-11-19 06:20:36",
        "first_observation_date": "2017-10-26",
        "last_observation_date": "2017-11-18",
        "data_arc_in_days": 23,
        "observations_used": 39,
        "orbit_uncertainty": "7",
        "minimum_orbit_intersection": ".0504662",
        "jupiter_tisserand_invariant": "3.227",
        "epoch_osculation": "2459000.5",
        "eccentricity": ".5886970155533906",
        "semi_major_axis": "2.455841818862365",
        "inclination": "3.402663748562168",
        "ascending_node_longitude": "116.5428322815999",
        "orbital_period": "1405.720610549825",
        "perihelion_distance": "1.01009506942688",
        "perihelion_argument": "247.1383582714924",
        "aphelion_distance": "3.90158856829785",
        "perihelion_time": "2459431.279685514551",
        "mean_anomaly": "249.6788695980057",
        "mean_motion": ".2560964087018627",
        "equinox": "J2000",
        "orbit_class": {
            "orbit_class_type": "APO",
            "orbit_class_description": "Near-Earth asteroid orbits which cross the Earth’s orbit similar to that of 1862 Apollo",
            "orbit_class_range": "a (semi-major axis) > 1.0 AU; q (perihelion) < 1.017 AU"
        }
    },
    "is_sentry_object": false
}